OBJECT_NAME,OBJECT_ID,EPOCH,MEAN_MOTION,ECCENTRICITY,INCLINATION,RA_OF_ASC_NODE,ARG_OF_PERICENTER,MEAN_ANOMALY,EPHEMERIS_TYPE,CLASSIFICATION_TYPE,NORAD_CAT_ID,ELEMENT_SET_NO,REV_AT_EPOCH,BSTAR,MEAN_MOTION_DOT,MEAN_MOTION_DDOT
TJS-7,2021-077A,2026-07-22T14:16:17.214816,1.00273338,.00030266,0.2651,263.6329,119.3715,31.9117,0,U,49115,999,990,0,-.12E-5,0
CHINASAT 9B,2021-080A,2026-07-21T20:24:23.993280,1.00270380,.00026471,0.0456,245.1283,253.8482,208.1378,0,U,49125,999,1799,0,-.31E-5,0
SHIJIAN-21 (SJ-21),2021-094A,2026-07-22T14:11:25.418688,1.00275138,.00514583,5.1945,60.9612,168.8558,51.3950,0,U,49330,999,571,0,-.348E-5,0
SES-17,2021-095A,2026-07-22T11:00:06.979104,1.00270579,.00011246,0.0234,51.3826,61.3695,285.3820,0,U,49332,999,1820,0,-.269E-5,0
SYRACUSE 4A,2021-095B,2026-07-22T11:32:18.892608,1.00269983,.00014601,0.0207,58.9434,59.4448,40.4304,0,U,49333,999,1830,0,0,0
QZS-1R (MICHIBIKI-1R),2021-096A,2026-07-19T13:27:51.734016,1.00244085,.07555125,37.5263,79.1015,272.3091,279.1178,0,U,49336,999,1733,0,-.322E-5,0
ZHONGXING-1D,2021-114A,2026-07-22T15:21:46.732608,1.00273418,.00002843,0.0360,215.7664,104.5856,340.6421,0,U,49505,999,1717,0,-.332E-5,0
STPSAT-6,2021-118A,2026-07-22T11:40:38.727840,1.00271136,.00007937,0.4093,85.0789,259.5928,18.9015,0,U,49817,999,1692,0,-.41E-6,0
EXPRESS AMU-7,2021-123A,2026-07-22T15:26:01.325760,1.00272449,.00003553,0.0331,261.9939,112.0634,302.8323,0,U,50001,999,1689,0,-.239E-5,0
EXPRESS AMU-3,2021-123B,2026-07-21T21:09:26.028864,1.00271763,.00001193,0.0058,307.4175,177.6640,234.9066,0,U,50002,999,738,0,-.319E-5,0
TURKSAT 5B,2021-126A,2026-07-22T11:31:18.988032,1.00270581,.00020741,0.0716,336.8249,21.4143,156.7898,0,U,50212,999,1665,0,.15E-5,0
INMARSAT 6-F1,2021-128A,2026-07-22T10:00:32.524704,1.00271379,.00002784,0.0151,44.0284,32.7569,97.2572,0,U,50319,999,1661,0,-.168E-5,0
SHIYAN-12 01 (SY-12 01),2021-129A,2026-07-22T06:20:25.153728,1.00055591,.0002594,3.7626,79.4374,292.5409,54.8525,0,U,50321,999,1684,0,.142E-5,0
SHIYAN-12 02 (SY-12 02),2021-129B,2026-07-22T12:48:38.790720,1.00474110,.0003285,3.7622,79.4327,66.3052,102.4546,0,U,50322,999,1685,0,-.361E-5,0
TJS-9,2021-135A,2026-07-22T15:23:46.541760,1.00270155,.00023453,0.0633,99.8351,336.9483,231.7825,0,U,50574,999,1678,0,-.295E-5,0
GOES 18,2022-021A,2026-07-22T12:14:38.565312,1.00273019,.00005109,0.0041,109.5188,31.2214,206.1641,0,U,51850,999,694,0,.1E-5,0
ZHONGXING-6D,2022-038A,2026-07-19T19:49:46.791264,1.00267596,.00007886,0.0045,101.1810,94.3887,164.4279,0,U,52255,999,1575,0,0,0
NILESAT 301,2022-061A,2026-07-22T07:47:15.628416,1.00270726,.00036921,0.0526,331.8702,109.1441,328.8469,0,U,52817,999,1508,0,-.55E-6,0
CMS-02 (GSAT-24),2022-067A,2026-07-22T10:00:17.548992,1.00272694,.00007792,0.0527,247.7041,121.9197,163.6045,0,U,52903,999,1496,0,-.161E-5,0
MEASAT 3D,2022-067B,2026-07-22T11:45:21.896064,1.00272131,.00002845,0.0619,290.7605,178.7700,98.5391,0,U,52904,999,1500,0,-.238E-5,0
SES-22,2022-071A,2026-07-22T12:14:38.565312,1.00266298,.00011597,0.0342,270.2717,198.7436,235.8930,0,U,52933,999,787,0,.108E-5,0
WFOV (USA 332),2022-073A,2026-07-22T12:48:38.791584,1.00274241,.00008744,3.7990,78.0802,181.4624,352.2091,0,U,52940,999,1472,0,-.362E-5,0
TIANLIAN 2-03,2022-078A,2026-07-22T08:24:38.681280,1.00270082,.00006712,0.7576,77.5569,30.0020,329.2983,0,U,53100,999,1489,0,.74E-6,0
SBIRS GEO-6 (USA 336),2022-092A,2026-07-22T10:16:16.774752,1.00272057,.00020151,3.1994,318.0727,156.0488,119.1188,0,U,53355,999,1458,0,-.285E-5,0
EUTELSAT KONNECT VHTS,2022-110A,2026-07-22T07:54:44.471232,1.00271769,.00029907,0.0552,100.0291,351.8750,329.5657,0,U,53765,999,718,0,.2E-6,0
ZHONGXING-1E,2022-112A,2026-07-21T15:27:20.268576,1.00272538,.00006756,0.0431,226.7079,37.4095,348.5332,0,U,53813,999,1419,0,-.148E-5,0
SES-20,2022-123A,2026-07-22T10:49:52.960224,1.00270325,.0002157,0.0141,69.7186,23.6221,266.2174,0,U,53960,999,1388,0,-.97E-6,0
SES-21,2022-123B,2026-07-22T12:06:38.635776,1.00263826,.00005532,0.0217,33.7040,100.1490,217.0650,0,U,53961,999,756,0,.74E-6,0
GALAXY 33 (G-33),2022-128A,2026-07-21T17:34:55.998048,1.00276179,.000185,0.0119,334.1596,148.5438,307.5206,0,U,54026,999,1408,0,.81E-6,0
GALAXY 34 (G-34),2022-128B,2026-07-22T07:17:10.571712,1.00270200,.00018275,0.0127,43.6550,84.8497,151.8375,0,U,54027,999,1426,0,.62E-6,0
