{"epoch":1784762836,"count":18316,"objects":[{"id":"49115","name":"TJS-7","type":"PAYLOAD","l1":"1 49115U 21077A   26203.59464369 -.00000120  00000-0  00000-0 0  9990","l2":"2 49115   0.2651 263.6329 0003027 119.3715  31.9117  1.00273338  9903"},{"id":"49125","name":"CHINASAT 9B","type":"PAYLOAD","l1":"1 49125U 21080A   26202.85027770 -.00000310  00000-0  00000-0 0  9995","l2":"2 49125   0.0456 245.1283 0002647 253.8482 208.1378  1.00270380 17990"},{"id":"49330","name":"SJ-21","type":"PAYLOAD","l1":"1 49330U 21094A   26203.59126642 -.00000348  00000-0  00000-0 0  9999","l2":"2 49330   5.1945  60.9612 0051458 168.8558  51.3950  1.00275138  5716"},{"id":"49332","name":"SES 17","type":"PAYLOAD","l1":"1 49332U 21095A   26203.45841411 -.00000269  00000-0  00000-0 0  9997","l2":"2 49332   0.0234  51.3826 0001125  61.3695 285.3820  1.00270579 18206"},{"id":"49333","name":"SYRACUSE 4A","type":"PAYLOAD","l1":"1 49333U 21095B   26203.48077422  .00000000  00000-0  00000-0 0  9996","l2":"2 49333   0.0207  58.9434 0001460  59.4448  40.4304  1.00269983 18306"},{"id":"49336","name":"QZS-1R","type":"PAYLOAD","l1":"1 49336U 21096A   26200.56101544 -.00000322  00000-0  00000-0 0  9997","l2":"2 49336  37.5263  79.1015 0755512 272.3091 279.1178  1.00244085 17338"},{"id":"49505","name":"CHINASAT 1D","type":"PAYLOAD","l1":"1 49505U 21114A   26203.64012422 -.00000332  00000-0  00000-0 0  9995","l2":"2 49505   0.0360 215.7664 0000284 104.5856 340.6421  1.00273418 17170"},{"id":"49817","name":"STPSAT-6","type":"PAYLOAD","l1":"1 49817U 21118A   26203.48655935 -.00000041  00000-0  00000-0 0  9996","l2":"2 49817   0.4093  85.0789 0000794 259.5928  18.9015  1.00271136 16927"},{"id":"50001","name":"EXPRESS AMU-7","type":"PAYLOAD","l1":"1 50001U 21123A   26203.64307090 -.00000239  00000-0  00000-0 0  9992","l2":"2 50001   0.0331 261.9939 0000355 112.0634 302.8323  1.00272449 16898"},{"id":"50002","name":"EXPRESS AMU-3","type":"PAYLOAD","l1":"1 50002U 21123B   26202.88155126 -.00000319  00000-0  00000-0 0  9998","l2":"2 50002   0.0058 307.4175 0000119 177.6640 234.9066  1.00271763  7386"},{"id":"50212","name":"TURKSAT 5B","type":"PAYLOAD","l1":"1 50212U 21126A   26203.48008088  .00000150  00000-0  00000-0 0  9997","l2":"2 50212   0.0716 336.8249 0002074  21.4143 156.7898  1.00270581 16655"},{"id":"50319","name":"INMARSAT 6-F1","type":"PAYLOAD","l1":"1 50319U 21128A   26203.41704311 -.00000168  00000-0  00000-0 0  9992","l2":"2 50319   0.0151  44.0284 0000278  32.7569  97.2572  1.00271379 16614"},{"id":"50321","name":"SHIYAN 12 01 (SY-12 01)","type":"PAYLOAD","l1":"1 50321U 21129A   26203.26418002  .00000142  00000-0  00000+0 0  9998","l2":"2 50321   3.7626  79.4374 0002594 292.5409  54.8525  1.00055591 16846"},{"id":"50322","name":"SHIYAN 12 02 (SY-12 02)","type":"PAYLOAD","l1":"1 50322U 21129B   26203.53378230 -.00000361  00000-0  00000+0 0  9991","l2":"2 50322   3.7622  79.4327 0003285  66.3052 102.4546  1.00474110 16856"},{"id":"50574","name":"TJS-9","type":"PAYLOAD","l1":"1 50574U 21135A   26203.64151090 -.00000295  00000-0  00000-0 0  9999","l2":"2 50574   0.0633  99.8351 0002345 336.9483 231.7825  1.00270155 16781"},{"id":"51850","name":"GOES 18","type":"PAYLOAD","l1":"1 51850U 22021A   26203.51016858  .00000100  00000-0  00000-0 0  9994","l2":"2 51850   0.0041 109.5188 0000511  31.2214 206.1641  1.00273019  6940"},{"id":"52255","name":"CHINASAT 6D","type":"PAYLOAD","l1":"1 52255U 22038A   26200.82623601  .00000000  00000-0  00000-0 0  9992","l2":"2 52255   0.0045 101.1810 0000789  94.3887 164.4279  1.00267596 15752"},{"id":"52817","name":"NILESAT 301","type":"PAYLOAD","l1":"1 52817U 22061A   26203.32448644 -.00000055  00000-0  00000-0 0  9993","l2":"2 52817   0.0526 331.8702 0003692 109.1441 328.8469  1.00270726 15081"},{"id":"52903","name":"CMS-02","type":"PAYLOAD","l1":"1 52903U 22067A   26203.41686978 -.00000161  00000-0  00000-0 0  9997","l2":"2 52903   0.0527 247.7041 0000779 121.9197 163.6045  1.00272694 14969"},{"id":"52904","name":"MEASAT 3D","type":"PAYLOAD","l1":"1 52904U 22067B   26203.48983676 -.00000238  00000-0  00000-0 0  9995","l2":"2 52904   0.0619 290.7605 0000285 178.7700  98.5391  1.00272131 15000"},{"id":"52933","name":"SES 22","type":"PAYLOAD","l1":"1 52933U 22071A   26203.51016858  .00000108  00000-0  00000-0 0  9990","l2":"2 52933   0.0342 270.2717 0001160 198.7436 235.8930  1.00266298  7871"},{"id":"52940","name":"WFOV (USA 332)","type":"PAYLOAD","l1":"1 52940U 22073A   26203.53378231 -.00000362  00000-0  00000-0 0  9991","l2":"2 52940   3.7990  78.0802 0000874 181.4624 352.2091  1.00274241 14727"},{"id":"53100","name":"TIANLIAN-2 03","type":"PAYLOAD","l1":"1 53100U 22078A   26203.35044770  .00000074  00000-0  00000-0 0  9992","l2":"2 53100   0.7576  77.5569 0000671  30.0020 329.2983  1.00270082 14892"},{"id":"53355","name":"SBIRS GEO 6 (USA 336)","type":"PAYLOAD","l1":"1 53355U 22092A   26203.42797193 -.00000285  00000-0  00000-0 0  9997","l2":"2 53355   3.1994 318.0727 0002015 156.0488 119.1188  1.00272057 14588"},{"id":"53765","name":"EUTE KONNECT VHTS","type":"PAYLOAD","l1":"1 53765U 22110A   26203.32968138  .00000020  00000-0  00000-0 0  9997","l2":"2 53765   0.0552 100.0291 0002991 351.8750 329.5657  1.00271769  7189"},{"id":"53813","name":"CHINASAT 1E","type":"PAYLOAD","l1":"1 53813U 22112A   26202.64398459 -.00000148  00000-0  00000-0 0  9992","l2":"2 53813   0.0431 226.7079 0000676  37.4095 348.5332  1.00272538 14191"},{"id":"53960","name":"SES 20","type":"PAYLOAD","l1":"1 53960U 22123A   26203.45130741 -.00000097  00000-0  00000-0 0  9998","l2":"2 53960   0.0141  69.7186 0002157  23.6221 266.2174  1.00270325 13887"},{"id":"53961","name":"SES 21","type":"PAYLOAD","l1":"1 53961U 22123B   26203.50461384  .00000074  00000-0  00000-0 0  9999","l2":"2 53961   0.0217  33.7040 0000553 100.1490 217.0650  1.00263826  7568"},{"id":"54026","name":"GALAXY 33","type":"PAYLOAD","l1":"1 54026U 22128A   26202.73259257  .00000081  00000-0  00000-0 0  9993","l2":"2 54026   0.0119 334.1596 0001850 148.5438 307.5206  1.00276179 14087"},{"id":"54027","name":"GALAXY 34","type":"PAYLOAD","l1":"1 54027U 22128B   26203.30359458  .00000062  00000-0  00000-0 0  9991","l2":"2 54027   0.0127  43.6550 0001827  84.8497 151.8375  1.00270200 14266"}]}